{"type":"FeatureCollection","properties":{"source":"Generalitat de Catalunya, Equipaments de Catalunya (https://analisi.transparenciacatalunya.cat, dataset 8gmd-gz7i)","license":"Open data, Generalitat de Catalunya","almeria_source":{"region":"eastern-almeria","bbox":[-2.45,36.8,-1.55,37.65],"snapshot_at":"2026-09-18T20:21:10Z","source":"https://download.geofabrik.de/europe/spain/andalucia.html","license":"ODbL 1.0, © OpenStreetMap contributors","source_sha256":"b13affcc4c24524ae75ce2212592ba156977c7d870c0d3ac19dea99ac1a74ad7","scope":"OSM mapped assets; completeness not guaranteed. Snapshot postdates the July replay.","counts":{"hospital":10,"school":153,"town":601,"power-line":315}}},"features":[{"type":"Feature","id":"hosp-3622476","properties":{"id":"hosp-3622476","name":"Hospital de Mataró","category":"hospital","municipality":"MATARÓ"},"geometry":{"type":"Point","coordinates":[2.430070638,41.555882374]}},{"type":"Feature","id":"hosp-3619864","properties":{"id":"hosp-3619864","name":"Centre MQ Reus","category":"hospital","municipality":"REUS"},"geometry":{"type":"Point","coordinates":[1.106531608,41.160215986]}},{"type":"Feature","id":"hosp-3619951","properties":{"id":"hosp-3619951","name":"Clínica Terres de l'Ebre","category":"hospital","municipality":"TORTOSA"},"geometry":{"type":"Point","coordinates":[0.516219356,40.813794323]}},{"type":"Feature","id":"hosp-3622206","properties":{"id":"hosp-3622206","name":"Hospital Residència Sant Camil","category":"hospital","municipality":"SANT PERE DE RIBES"},"geometry":{"type":"Point","coordinates":[1.766278061,41.254105654]}},{"type":"Feature","id":"hosp-3620044","properties":{"id":"hosp-3620044","name":"Hospital Universitari Doctor Josep Trueta de Girona","category":"hospital","municipality":"GIRONA"},"geometry":{"type":"Point","coordinates":[2.819133385,41.99489771]}},{"type":"Feature","id":"hosp-3620188","properties":{"id":"hosp-3620188","name":"Hospital Comarcal Móra d'Ebre","category":"hospital","municipality":"MÓRA D'EBRE"},"geometry":{"type":"Point","coordinates":[0.637511988,41.095599938]}},{"type":"Feature","id":"hosp-3621558","properties":{"id":"hosp-3621558","name":"Hospital de l'Esperança","category":"hospital","municipality":"BARCELONA"},"geometry":{"type":"Point","coordinates":[2.154360089,41.410958394]}},{"type":"Feature","id":"hosp-3621556","properties":{"id":"hosp-3621556","name":"Hospital de la Santa Creu i Sant Pau","category":"hospital","municipality":"BARCELONA"},"geometry":{"type":"Point","coordinates":[2.175790439,41.415057584]}},{"type":"Feature","id":"hosp-31294920","properties":{"id":"hosp-31294920","name":"Hospital Sant Pau i Santa Tecla","category":"hospital","municipality":"TARRAGONA"},"geometry":{"type":"Point","coordinates":[1.254926456,41.116375149]}},{"type":"Feature","id":"hosp-3620691","properties":{"id":"hosp-3620691","name":"Hospital Universitari Mútua Terrassa","category":"hospital","municipality":"TERRASSA"},"geometry":{"type":"Point","coordinates":[2.016590144,41.56357212]}},{"type":"Feature","id":"hosp-3620124","properties":{"id":"hosp-3620124","name":"Hospital de Campdevànol","category":"hospital","municipality":"CAMPDEVÀNOL"},"geometry":{"type":"Point","coordinates":[2.166740403,42.222682511]}},{"type":"Feature","id":"hosp-3621561","properties":{"id":"hosp-3621561","name":"Hospital Dos de Maig","category":"hospital","municipality":"BARCELONA"},"geometry":{"type":"Point","coordinates":[2.177043655,41.410694718]}},{"type":"Feature","id":"hosp-3622711","properties":{"id":"hosp-3622711","name":"Institut Guttmann","category":"hospital","municipality":"BADALONA"},"geometry":{"type":"Point","coordinates":[2.23749876,41.47836106]}},{"type":"Feature","id":"hosp-3621700","properties":{"id":"hosp-3621700","name":"Hospital Universitari Sagrat Cor","category":"hospital","municipality":"BARCELONA"},"geometry":{"type":"Point","coordinates":[2.145427211,41.388766715]}},{"type":"Feature","id":"hosp-3622707","properties":{"id":"hosp-3622707","name":"Hospital Municipal Badalona","category":"hospital","municipality":"BADALONA"},"geometry":{"type":"Point","coordinates":[2.245711104,41.450566207]}},{"type":"Feature","id":"hosp-3621513","properties":{"id":"hosp-3621513","name":"Espitau  Val d'Aran","category":"hospital","municipality":"VIELHA E MIJARAN"},"geometry":{"type":"Point","coordinates":[0.797774226,42.701981755]}},{"type":"Feature","id":"hosp-3620512","properties":{"id":"hosp-3620512","name":"Hospital d'Olot i Comarcal de la Garrotxa","category":"hospital","municipality":"OLOT"},"geometry":{"type":"Point","coordinates":[2.467877097,42.187483774]}},{"type":"Feature","id":"hosp-3619624","properties":{"id":"hosp-3619624","name":"Hospital Universitari Santa Maria","category":"hospital","municipality":"LLEIDA"},"geometry":{"type":"Point","coordinates":[0.616485668,41.623043416]}},{"type":"Feature","id":"hosp-34466189","properties":{"id":"hosp-34466189","name":"Hospital Universitari Vall d'Hebron. Edifici Gregal","category":"hospital","municipality":"BARCELONA"},"geometry":{"type":"Point","coordinates":[2.140248176,41.414924141]}},{"type":"Feature","id":"hosp-3620688","properties":{"id":"hosp-3620688","name":"Hospital de Terrassa","category":"hospital","municipality":"TERRASSA"},"geometry":{"type":"Point","coordinates":[2.053819999,41.55693]}},{"type":"Feature","id":"hosp-34466188","properties":{"id":"hosp-34466188","name":"Hospital Universitari Vall d'Hebron. Edifici Garbí","category":"hospital","municipality":"BARCELONA"},"geometry":{"type":"Point","coordinates":[2.140248176,41.414924141]}},{"type":"Feature","id":"hosp-3622049","properties":{"id":"hosp-3622049","name":"Fundació Hospital de l'Esperit Sant","category":"hospital","municipality":"SANTA COLOMA DE GRAMENET"},"geometry":{"type":"Point","coordinates":[2.212027498,41.43807631]}},{"type":"Feature","id":"hosp-3621389","properties":{"id":"hosp-3621389","name":"Fundació Puigvert/Iuna","category":"hospital","municipality":"BARCELONA"},"geometry":{"type":"Point","coordinates":[2.172819595,41.412463228]}},{"type":"Feature","id":"hosp-3619876","properties":{"id":"hosp-3619876","name":"Hospital Universitari de Sant Joan de Reus","category":"hospital","municipality":"REUS"},"geometry":{"type":"Point","coordinates":[1.109934539,41.155099943]}},{"type":"Feature","id":"hosp-3621887","properties":{"id":"hosp-3621887","name":"ICO L'Hospitalet","category":"hospital","municipality":"L'HOSPITALET DE LLOBREGAT"},"geometry":{"type":"Point","coordinates":[2.111304136,41.346171158]}},{"type":"Feature","id":"hosp-9993371","properties":{"id":"hosp-9993371","name":"Hospital Sant Joan de Déu d'Esplugues","category":"hospital","municipality":"ESPLUGUES DE LLOBREGAT"},"geometry":{"type":"Point","coordinates":[2.101014805,41.384034897]}},{"type":"Feature","id":"hosp-3620357","properties":{"id":"hosp-3620357","name":"Hospital Sant Joan de Déu de Manresa","category":"hospital","municipality":"MANRESA"},"geometry":{"type":"Point","coordinates":[1.839099671,41.720277046]}},{"type":"Feature","id":"hosp-3621396","properties":{"id":"hosp-3621396","name":"Hospital Clínic de Barcelona","category":"hospital","municipality":"BARCELONA"},"geometry":{"type":"Point","coordinates":[2.151766848,41.389116961]}},{"type":"Feature","id":"hosp-3622844","properties":{"id":"hosp-3622844","name":"Hospital de Sabadell","category":"hospital","municipality":"SABADELL"},"geometry":{"type":"Point","coordinates":[2.111046016,41.557584391]}},{"type":"Feature","id":"hosp-14142568","properties":{"id":"hosp-14142568","name":"Clínica Mi NovAliança","category":"hospital","municipality":"LLEIDA"},"geometry":{"type":"Point","coordinates":[0.626402825,41.622196699]}},{"type":"Feature","id":"hosp-3622809","properties":{"id":"hosp-3622809","name":"Hospital Universitari de Vic","category":"hospital","municipality":"VIC"},"geometry":{"type":"Point","coordinates":[2.26036082,41.936662712]}},{"type":"Feature","id":"hosp-3620556","properties":{"id":"hosp-3620556","name":"Clínica Girona","category":"hospital","municipality":"GIRONA"},"geometry":{"type":"Point","coordinates":[2.811670102,41.963857528]}},{"type":"Feature","id":"hosp-3619964","properties":{"id":"hosp-3619964","name":"Hospital Universitari de Tortosa Verge de la Cinta","category":"hospital","municipality":"TORTOSA"},"geometry":{"type":"Point","coordinates":[0.527238547,40.811744914]}},{"type":"Feature","id":"hosp-3622588","properties":{"id":"hosp-3622588","name":"Hospital de Viladecans","category":"hospital","municipality":"VILADECANS"},"geometry":{"type":"Point","coordinates":[2.014870198,41.31239662]}},{"type":"Feature","id":"hosp-3620261","properties":{"id":"hosp-3620261","name":"Hospital Comarcal de Blanes","category":"hospital","municipality":"BLANES"},"geometry":{"type":"Point","coordinates":[2.801905004,41.687721367]}},{"type":"Feature","id":"hosp-3620967","properties":{"id":"hosp-3620967","name":"Hospital de Sant Celoni","category":"hospital","municipality":"SANT CELONI"},"geometry":{"type":"Point","coordinates":[2.486566576,41.687738332]}},{"type":"Feature","id":"hosp-3621699","properties":{"id":"hosp-3621699","name":"Hospital Universitari Maternoinfantil de la Vall d'Hebron","category":"hospital","municipality":"BARCELONA"},"geometry":{"type":"Point","coordinates":[2.143432368,41.428018548]}},{"type":"Feature","id":"hosp-3621886","properties":{"id":"hosp-3621886","name":"Hospital Universitari de Bellvitge","category":"hospital","municipality":"L'HOSPITALET DE LLOBREGAT"},"geometry":{"type":"Point","coordinates":[2.103328442,41.342472608]}},{"type":"Feature","id":"hosp-3620101","properties":{"id":"hosp-3620101","name":"Clínica Salus Infirmorum","category":"hospital","municipality":"BANYOLES"},"geometry":{"type":"Point","coordinates":[2.761363899,42.114774328]}},{"type":"Feature","id":"hosp-3619637","properties":{"id":"hosp-3619637","name":"Hospital del Vendrell","category":"hospital","municipality":"EL VENDRELL"},"geometry":{"type":"Point","coordinates":[1.542787835,41.223910519]}},{"type":"Feature","id":"hosp-3620952","properties":{"id":"hosp-3620952","name":"Hospital de Mollet","category":"hospital","municipality":"MOLLET DEL VALLÈS"},"geometry":{"type":"Point","coordinates":[2.201961661,41.542327218]}},{"type":"Feature","id":"hosp-3621566","properties":{"id":"hosp-3621566","name":"Hospital Clínic de Barcelona, seu Plató","category":"hospital","municipality":"BARCELONA"},"geometry":{"type":"Point","coordinates":[2.142559033,41.400900011]}},{"type":"Feature","id":"hosp-3620297","properties":{"id":"hosp-3620297","name":"Hospital de Figueres","category":"hospital","municipality":"FIGUERES"},"geometry":{"type":"Point","coordinates":[2.955682479,42.26796396]}},{"type":"Feature","id":"hosp-3622200","properties":{"id":"hosp-3622200","name":"Hospital Sant Joan de Déu de Martorell","category":"hospital","municipality":"MARTORELL"},"geometry":{"type":"Point","coordinates":[1.920266987,41.471825722]}},{"type":"Feature","id":"hosp-3619724","properties":{"id":"hosp-3619724","name":"Hospital Comarcal d'Amposta","category":"hospital","municipality":"AMPOSTA"},"geometry":{"type":"Point","coordinates":[0.57815262,40.708921157]}},{"type":"Feature","id":"hosp-3620321","properties":{"id":"hosp-3620321","name":"Hospital Universitari d'Igualada","category":"hospital","municipality":"IGUALADA"},"geometry":{"type":"Point","coordinates":[1.619722323,41.587940966]}},{"type":"Feature","id":"hosp-3620470","properties":{"id":"hosp-3620470","name":"Hospital de Palamós","category":"hospital","municipality":"PALAMÓS"},"geometry":{"type":"Point","coordinates":[3.131241428,41.85282514]}},{"type":"Feature","id":"hosp-3621852","properties":{"id":"hosp-3621852","name":"Hospital Comarcal de l'Alt Penedès","category":"hospital","municipality":"VILAFRANCA DEL PENEDÈS"},"geometry":{"type":"Point","coordinates":[1.705755256,41.355984578]}},{"type":"Feature","id":"hosp-3620076","properties":{"id":"hosp-3620076","name":"Hospital Comarcal Sant Jaume de Calella","category":"hospital","municipality":"CALELLA"},"geometry":{"type":"Point","coordinates":[2.657274036,41.614753419]}},{"type":"Feature","id":"hosp-3621570","properties":{"id":"hosp-3621570","name":"Hospital Universitari General de la Vall d'Hebron","category":"hospital","municipality":"BARCELONA"},"geometry":{"type":"Point","coordinates":[2.143432368,41.428018548]}},{"type":"Feature","id":"hosp-3620045","properties":{"id":"hosp-3620045","name":"ICO Girona","category":"hospital","municipality":"GIRONA"},"geometry":{"type":"Point","coordinates":[2.819133385,41.99489771]}},{"type":"Feature","id":"hosp-3622217","properties":{"id":"hosp-3622217","name":"Hospital Comarcal Sant Antoni Abat","category":"hospital","municipality":"VILANOVA I LA GELTRÚ"},"geometry":{"type":"Point","coordinates":[1.722824895,41.228711554]}},{"type":"Feature","id":"hosp-3622449","properties":{"id":"hosp-3622449","name":"Hospital General. Parc Sanitari Sant Joan de Déu","category":"hospital","municipality":"SANT BOI DE LLOBREGAT"},"geometry":{"type":"Point","coordinates":[2.031754203,41.353227276]}},{"type":"Feature","id":"hosp-3619782","properties":{"id":"hosp-3619782","name":"Pius Hospital de Valls","category":"hospital","municipality":"VALLS"},"geometry":{"type":"Point","coordinates":[1.251601136,41.283499665]}},{"type":"Feature","id":"hosp-3620828","properties":{"id":"hosp-3620828","name":"Hospital General de Granollers","category":"hospital","municipality":"GRANOLLERS"},"geometry":{"type":"Point","coordinates":[2.295054704,41.612910122]}},{"type":"Feature","id":"hosp-3621398","properties":{"id":"hosp-3621398","name":"Hospital Clínic de Barcelona, seu Sabino de Arana","category":"hospital","municipality":"BARCELONA"},"geometry":{"type":"Point","coordinates":[2.126672584,41.385444946]}},{"type":"Feature","id":"hosp-3620059","properties":{"id":"hosp-3620059","name":"Hospital Santa Caterina","category":"hospital","municipality":"SALT"},"geometry":{"type":"Point","coordinates":[2.79782736,41.972274933]}},{"type":"Feature","id":"hosp-3621560","properties":{"id":"hosp-3621560","name":"Hospital del Mar","category":"hospital","municipality":"BARCELONA"},"geometry":{"type":"Point","coordinates":[2.194666147,41.383401991]}},{"type":"Feature","id":"hosp-3621569","properties":{"id":"hosp-3621569","name":"Hospital Universitari de Traumatologia i Rehabilitació de la Vall d'Hebron","category":"hospital","municipality":"BARCELONA"},"geometry":{"type":"Point","coordinates":[2.143432368,41.428018548]}},{"type":"Feature","id":"hosp-3622468","properties":{"id":"hosp-3622468","name":"Hospital de Sant Joan Despí Moisès Broggi","category":"hospital","municipality":"SANT JOAN DESPÍ"},"geometry":{"type":"Point","coordinates":[2.059193162,41.369493979]}},{"type":"Feature","id":"hosp-3621026","properties":{"id":"hosp-3621026","name":"AECT Hospital de Cerdanya","category":"hospital","municipality":"PUIGCERDÀ"},"geometry":{"type":"Point","coordinates":[1.928325908,42.431232964]}},{"type":"Feature","id":"hosp-3621885","properties":{"id":"hosp-3621885","name":"Hospital General de l'Hospitalet","category":"hospital","municipality":"L'HOSPITALET DE LLOBREGAT"},"geometry":{"type":"Point","coordinates":[2.10672353,41.374441605]}},{"type":"Feature","id":"hosp-3622708","properties":{"id":"hosp-3622708","name":"Hospital Universitari Germans Trias i Pujol de Badalona","category":"hospital","municipality":"BADALONA"},"geometry":{"type":"Point","coordinates":[2.238230961,41.479803115]}},{"type":"Feature","id":"hosp-3619625","properties":{"id":"hosp-3619625","name":"Hospital Universitari Arnau de Vilanova","category":"hospital","municipality":"LLEIDA"},"geometry":{"type":"Point","coordinates":[0.612141454,41.625851498]}},{"type":"Feature","id":"hosp-3622710","properties":{"id":"hosp-3622710","name":"ICO Badalona","category":"hospital","municipality":"BADALONA"},"geometry":{"type":"Point","coordinates":[2.238230961,41.479803115]}},{"type":"Feature","id":"hosp-3619915","properties":{"id":"hosp-3619915","name":"Hospital Universitari Joan XXIII de Tarragona","category":"hospital","municipality":"TARRAGONA"},"geometry":{"type":"Point","coordinates":[1.238621183,41.124225621]}},{"type":"Feature","id":"hosp-3621166","properties":{"id":"hosp-3621166","name":"Hospital Comarcal del Pallars","category":"hospital","municipality":"TREMP"},"geometry":{"type":"Point","coordinates":[0.89706272,42.164580316]}},{"type":"Feature","id":"hosp-3621568","properties":{"id":"hosp-3621568","name":"Fundació Hospitalàries Barcelona","category":"hospital","municipality":"BARCELONA"},"geometry":{"type":"Point","coordinates":[2.142364557,41.425697044]}},{"type":"Feature","id":"hosp-9927007","properties":{"id":"hosp-9927007","name":"Fundació Sant Hospital","category":"hospital","municipality":"LA SEU D'URGELL"},"geometry":{"type":"Point","coordinates":[1.460881217,42.354881569]}},{"type":"Feature","id":"hosp-3622301","properties":{"id":"hosp-3622301","name":"Hospital Comarcal Sant Bernabé","category":"hospital","municipality":"BERGA"},"geometry":{"type":"Point","coordinates":[1.851264195,42.106023618]}},{"type":"Feature","id":"osm-eastern-almeria-node-2640745647","properties":{"id":"osm-eastern-almeria-node-2640745647","name":"Hospital Psiquiátrico","category":"hospital","region":"eastern-almeria","municipality":null,"osm_type":"node","osm_id":2640745647,"source":"OpenStreetMap contributors"},"geometry":{"type":"Point","coordinates":[-2.4140921,36.8577567]}},{"type":"Feature","id":"osm-eastern-almeria-relation-20575144","properties":{"id":"osm-eastern-almeria-relation-20575144","name":"Hospital de Alta Resolución El Toyo","category":"hospital","region":"eastern-almeria","municipality":"El Retamar","osm_type":"relation","osm_id":20575144,"source":"OpenStreetMap contributors"},"geometry":{"type":"Point","coordinates":[-2.312674313549074,36.8507726]}},{"type":"Feature","id":"osm-eastern-almeria-relation-8523622","properties":{"id":"osm-eastern-almeria-relation-8523622","name":"Hospital Universitario Torrecárdenas","category":"hospital","region":"eastern-almeria","municipality":"Almería","osm_type":"relation","osm_id":8523622,"source":"OpenStreetMap contributors"},"geometry":{"type":"Point","coordinates":[-2.4411416925191647,36.86259495]}},{"type":"Feature","id":"osm-eastern-almeria-way-1213903966","properties":{"id":"osm-eastern-almeria-way-1213903966","name":"Hospital (OSM way 1213903966)","category":"hospital","region":"eastern-almeria","municipality":null,"osm_type":"way","osm_id":1213903966,"source":"OpenStreetMap contributors"},"geometry":{"type":"Point","coordinates":[-2.133909716160221,36.9359306]}},{"type":"Feature","id":"osm-eastern-almeria-way-1421500769","properties":{"id":"osm-eastern-almeria-way-1421500769","name":"Hospital La Inmaculada","category":"hospital","region":"eastern-almeria","municipality":null,"osm_type":"way","osm_id":1421500769,"source":"OpenStreetMap contributors"},"geometry":{"type":"Point","coordinates":[-1.942035551178437,37.401403]}},{"type":"Feature","id":"osm-eastern-almeria-way-27350566","properties":{"id":"osm-eastern-almeria-way-27350566","name":"Hospital Vithas Virgen del Mar","category":"hospital","region":"eastern-almeria","municipality":"Almería","osm_type":"way","osm_id":27350566,"source":"OpenStreetMap contributors"},"geometry":{"type":"Point","coordinates":[-2.417614764139247,36.85606985]}},{"type":"Feature","id":"osm-eastern-almeria-way-646505111","properties":{"id":"osm-eastern-almeria-way-646505111","name":"Centro de Salud Mediterráneo - Torrecárdenas","category":"hospital","region":"eastern-almeria","municipality":null,"osm_type":"way","osm_id":646505111,"source":"OpenStreetMap contributors"},"geometry":{"type":"Point","coordinates":[-2.4460000528647208,36.8572577]}},{"type":"Feature","id":"osm-eastern-almeria-way-672747764","properties":{"id":"osm-eastern-almeria-way-672747764","name":"Hospital HLA Mediterráneo","category":"hospital","region":"eastern-almeria","municipality":null,"osm_type":"way","osm_id":672747764,"source":"OpenStreetMap contributors"},"geometry":{"type":"Point","coordinates":[-2.435319753871495,36.82036685]}},{"type":"Feature","id":"osm-eastern-almeria-way-847489492","properties":{"id":"osm-eastern-almeria-way-847489492","name":"Hospital Materno-Infantil","category":"hospital","region":"eastern-almeria","municipality":"Almería","osm_type":"way","osm_id":847489492,"source":"OpenStreetMap contributors"},"geometry":{"type":"Point","coordinates":[-2.4421623544973934,36.8623121]}},{"type":"Feature","id":"osm-eastern-almeria-way-854167973","properties":{"id":"osm-eastern-almeria-way-854167973","name":"Complejo Hospitalario Torrecárdenas","category":"hospital","region":"eastern-almeria","municipality":null,"osm_type":"way","osm_id":854167973,"source":"OpenStreetMap contributors"},"geometry":{"type":"Point","coordinates":[-2.4406466302146166,36.862361050000004]}}]}
